CCSDS_OMM_VERS = 2.0
CREATION_DATE  = 
ORIGINATOR     = 

OBJECT_NAME    = STARLINK-36879
OBJECT_ID      = 2026-038X
CENTER_NAME    = EARTH
REF_FRAME      = TEME
TIME_SYSTEM    = UTC
MEAN_ELEMENT_THEORY = SGP/SGP4

EPOCH          = 2026-03-07T06:00:00.999648
MEAN_MOTION    = 15.98295572
ECCENTRICITY   = .000136
INCLINATION    = 97.2704
RA_OF_ASC_NODE = 76.3717
ARG_OF_PERICENTER = 80.5963
MEAN_ANOMALY   = 93.6861

EPHEMERIS_TYPE = 0
CLASSIFICATION_TYPE = U
NORAD_CAT_ID   = 67982
ELEMENT_SET_NO = 999
REV_AT_EPOCH   = 280
BSTAR          = -.33980276E-2
MEAN_MOTION_DOT = -.1553595E-1
MEAN_MOTION_DDOT = .72719876E-3

CCSDS_OMM_VERS = 2.0
CREATION_DATE  = 
ORIGINATOR     = 

OBJECT_NAME    = STARLINK-36867
OBJECT_ID      = 2026-038Y
CENTER_NAME    = EARTH
REF_FRAME      = TEME
TIME_SYSTEM    = UTC
MEAN_ELEMENT_THEORY = SGP/SGP4

EPOCH          = 2026-03-07T06:00:00.999648
MEAN_MOTION    = 15.98583816
ECCENTRICITY   = .00013782
INCLINATION    = 97.2701
RA_OF_ASC_NODE = 76.3748
ARG_OF_PERICENTER = 80.6470
MEAN_ANOMALY   = 100.6297

EPHEMERIS_TYPE = 0
CLASSIFICATION_TYPE = U
NORAD_CAT_ID   = 67983
ELEMENT_SET_NO = 999
REV_AT_EPOCH   = 280
BSTAR          = -.33324533E-2
MEAN_MOTION_DOT = -.1548203E-1
MEAN_MOTION_DDOT = .72481248E-3

CCSDS_OMM_VERS = 2.0
CREATION_DATE  = 
ORIGINATOR     = 

OBJECT_NAME    = STARLINK-36266
OBJECT_ID      = 2026-038Z
CENTER_NAME    = EARTH
REF_FRAME      = TEME
TIME_SYSTEM    = UTC
MEAN_ELEMENT_THEORY = SGP/SGP4

EPOCH          = 2026-03-07T06:00:00.999648
MEAN_MOTION    = 15.98451170
ECCENTRICITY   = .00012777
INCLINATION    = 97.2703
RA_OF_ASC_NODE = 76.3736
ARG_OF_PERICENTER = 83.3598
MEAN_ANOMALY   = 94.7684

EPHEMERIS_TYPE = 0
CLASSIFICATION_TYPE = U
NORAD_CAT_ID   = 67984
ELEMENT_SET_NO = 999
REV_AT_EPOCH   = 277
BSTAR          = -.33591831E-2
MEAN_MOTION_DOT = -.1549151E-1
MEAN_MOTION_DDOT = .7245775E-3

CCSDS_OMM_VERS = 2.0
CREATION_DATE  = 
ORIGINATOR     = 

OBJECT_NAME    = STARLINK-36802
OBJECT_ID      = 2026-038AA
CENTER_NAME    = EARTH
REF_FRAME      = TEME
TIME_SYSTEM    = UTC
MEAN_ELEMENT_THEORY = SGP/SGP4

EPOCH          = 2026-03-07T06:00:00.999648
MEAN_MOTION    = 15.98703275
ECCENTRICITY   = .00011626
INCLINATION    = 97.2700
RA_OF_ASC_NODE = 76.3760
ARG_OF_PERICENTER = 87.5074
MEAN_ANOMALY   = 96.6486

EPHEMERIS_TYPE = 0
CLASSIFICATION_TYPE = U
NORAD_CAT_ID   = 67985
ELEMENT_SET_NO = 999
REV_AT_EPOCH   = 280
BSTAR          = -.33105352E-2
MEAN_MOTION_DOT = -.1548209E-1
MEAN_MOTION_DDOT = .72577223E-3

CCSDS_OMM_VERS = 2.0
CREATION_DATE  = 
ORIGINATOR     = 

OBJECT_NAME    = STARLINK-36535
OBJECT_ID      = 2026-039A
CENTER_NAME    = EARTH
REF_FRAME      = TEME
TIME_SYSTEM    = UTC
MEAN_ELEMENT_THEORY = SGP/SGP4

EPOCH          = 2026-03-07T06:00:00.999648
MEAN_MOTION    = 15.91375223
ECCENTRICITY   = .00015216
INCLINATION    = 42.9972
RA_OF_ASC_NODE = 70.0130
ARG_OF_PERICENTER = 279.4732
MEAN_ANOMALY   = 205.7352

EPHEMERIS_TYPE = 0
CLASSIFICATION_TYPE = U
NORAD_CAT_ID   = 67986
ELEMENT_SET_NO = 999
REV_AT_EPOCH   = 248
BSTAR          = -.51264723E-2
MEAN_MOTION_DOT = -.1699105E-1
MEAN_MOTION_DDOT = .79330721E-3

CCSDS_OMM_VERS = 2.0
CREATION_DATE  = 
ORIGINATOR     = 

OBJECT_NAME    = STARLINK-36744
OBJECT_ID      = 2026-039B
CENTER_NAME    = EARTH
REF_FRAME      = TEME
TIME_SYSTEM    = UTC
MEAN_ELEMENT_THEORY = SGP/SGP4

EPOCH          = 2026-03-07T06:00:00.999648
MEAN_MOTION    = 15.91525894
ECCENTRICITY   = .00015689
INCLINATION    = 42.9972
RA_OF_ASC_NODE = 70.0068
ARG_OF_PERICENTER = 272.3217
MEAN_ANOMALY   = 215.2224

EPHEMERIS_TYPE = 0
CLASSIFICATION_TYPE = U
NORAD_CAT_ID   = 67987
ELEMENT_SET_NO = 999
REV_AT_EPOCH   = 248
BSTAR          = -.50006883E-2
MEAN_MOTION_DOT = -.167075E-1
MEAN_MOTION_DDOT = .77018711E-3

CCSDS_OMM_VERS = 2.0
CREATION_DATE  = 
ORIGINATOR     = 

OBJECT_NAME    = STARLINK-36734
OBJECT_ID      = 2026-039C
CENTER_NAME    = EARTH
REF_FRAME      = TEME
TIME_SYSTEM    = UTC
MEAN_ELEMENT_THEORY = SGP/SGP4

EPOCH          = 2026-03-07T06:00:00.999648
MEAN_MOTION    = 15.91677535
ECCENTRICITY   = .00015905
INCLINATION    = 42.9973
RA_OF_ASC_NODE = 69.9998
ARG_OF_PERICENTER = 276.8374
MEAN_ANOMALY   = 213.4546

EPHEMERIS_TYPE = 0
CLASSIFICATION_TYPE = U
NORAD_CAT_ID   = 67988
ELEMENT_SET_NO = 999
REV_AT_EPOCH   = 248
BSTAR          = -.49757306E-2
MEAN_MOTION_DOT = -.1675464E-1
MEAN_MOTION_DDOT = .77533428E-3

CCSDS_OMM_VERS = 2.0
CREATION_DATE  = 
ORIGINATOR     = 

OBJECT_NAME    = STARLINK-36957
OBJECT_ID      = 2026-039D
CENTER_NAME    = EARTH
REF_FRAME      = TEME
TIME_SYSTEM    = UTC
MEAN_ELEMENT_THEORY = SGP/SGP4

EPOCH          = 2026-03-07T06:00:00.999648
MEAN_MOTION    = 15.91833603
ECCENTRICITY   = .0001599
INCLINATION    = 42.9971
RA_OF_ASC_NODE = 69.9935
ARG_OF_PERICENTER = 273.3952
MEAN_ANOMALY   = 219.2316

EPHEMERIS_TYPE = 0
CLASSIFICATION_TYPE = U
NORAD_CAT_ID   = 67989
ELEMENT_SET_NO = 999
REV_AT_EPOCH   = 248
BSTAR          = -.48985013E-2
MEAN_MOTION_DOT = -.1663032E-1
MEAN_MOTION_DDOT = .7659196E-3

CCSDS_OMM_VERS = 2.0
CREATION_DATE  = 
ORIGINATOR     = 

OBJECT_NAME    = STARLINK-36951
OBJECT_ID      = 2026-039E
CENTER_NAME    = EARTH
REF_FRAME      = TEME
TIME_SYSTEM    = UTC
MEAN_ELEMENT_THEORY = SGP/SGP4

EPOCH          = 2026-03-07T06:00:00.999648
MEAN_MOTION    = 15.91979762
ECCENTRICITY   = .00016031
INCLINATION    = 42.9972
RA_OF_ASC_NODE = 69.9868
ARG_OF_PERICENTER = 270.2374
MEAN_ANOMALY   = 225.0761

EPHEMERIS_TYPE = 0
CLASSIFICATION_TYPE = U
NORAD_CAT_ID   = 67990
ELEMENT_SET_NO = 999
REV_AT_EPOCH   = 248
BSTAR          = -.48535067E-2
MEAN_MOTION_DOT = -.1660357E-1
MEAN_MOTION_DDOT = .76473589E-3

CCSDS_OMM_VERS = 2.0
CREATION_DATE  = 
ORIGINATOR     = 

OBJECT_NAME    = STARLINK-36941
OBJECT_ID      = 2026-039F
CENTER_NAME    = EARTH
REF_FRAME      = TEME
TIME_SYSTEM    = UTC
MEAN_ELEMENT_THEORY = SGP/SGP4

EPOCH          = 2026-03-07T06:00:00.999648
MEAN_MOTION    = 15.92138057
ECCENTRICITY   = .00015242
INCLINATION    = 42.9971
RA_OF_ASC_NODE = 69.9811
ARG_OF_PERICENTER = 270.9078
MEAN_ANOMALY   = 226.5449

EPHEMERIS_TYPE = 0
CLASSIFICATION_TYPE = U
NORAD_CAT_ID   = 67991
ELEMENT_SET_NO = 999
REV_AT_EPOCH   = 248
BSTAR          = -.47840613E-2
MEAN_MOTION_DOT = -.1650255E-1
MEAN_MOTION_DDOT = .75734747E-3

CCSDS_OMM_VERS = 2.0
CREATION_DATE  = 
ORIGINATOR     = 

OBJECT_NAME    = STARLINK-36950
OBJECT_ID      = 2026-039G
CENTER_NAME    = EARTH
REF_FRAME      = TEME
TIME_SYSTEM    = UTC
MEAN_ELEMENT_THEORY = SGP/SGP4

EPOCH          = 2026-03-07T06:00:00.999648
MEAN_MOTION    = 15.92287581
ECCENTRICITY   = .00015467
INCLINATION    = 42.9971
RA_OF_ASC_NODE = 69.9746
ARG_OF_PERICENTER = 274.1698
MEAN_ANOMALY   = 225.8685

EPHEMERIS_TYPE = 0
CLASSIFICATION_TYPE = U
NORAD_CAT_ID   = 67992
ELEMENT_SET_NO = 999
REV_AT_EPOCH   = 248
BSTAR          = -.47541026E-2
MEAN_MOTION_DOT = -.1652735E-1
MEAN_MOTION_DDOT = .76055293E-3

CCSDS_OMM_VERS = 2.0
CREATION_DATE  = 
ORIGINATOR     = 

OBJECT_NAME    = STARLINK-36975
OBJECT_ID      = 2026-039H
CENTER_NAME    = EARTH
REF_FRAME      = TEME
TIME_SYSTEM    = UTC
MEAN_ELEMENT_THEORY = SGP/SGP4

EPOCH          = 2026-03-07T06:00:00.999648
MEAN_MOTION    = 15.92430802
ECCENTRICITY   = .00015053
INCLINATION    = 42.9970
RA_OF_ASC_NODE = 69.9684
ARG_OF_PERICENTER = 273.9384
MEAN_ANOMALY   = 228.5531

EPHEMERIS_TYPE = 0
CLASSIFICATION_TYPE = U
NORAD_CAT_ID   = 67993
ELEMENT_SET_NO = 999
REV_AT_EPOCH   = 248
BSTAR          = -.46912712E-2
MEAN_MOTION_DOT = -.1643253E-1
MEAN_MOTION_DDOT = .75358489E-3

